#dP2023  6  2  0  0  0.00000000      96 __u+U ITR00 EXT  IAC
## 2264 432000.00000000   900.00000000 60097 0.0000000000000
+  119   C06C07C08C09C10C11C12C13C14C16C19C20C21C22C23C24C25
+        C26C27C28C29C30C32C33C34C35C36C37C38C39C40C41C42C43
+        C44C45C46E02E03E04E05E07E08E09E10E11E12E13E14E15E18
+        E19E21E24E25E26E27E30E31E33E34E36G01G02G03G04G05G06
+        G07G08G09G10G11G12G13G14G15G16G17G18G19G20G21G22G23
+        G24G25G26G27G28G29G30G31G32J02J03J04R01R02R03R04R05
+        R07R08R09R11R12R13R14R15R16R17R18R19R20R21R22R24R25
++         0  0  0  0  0  0  0  0  0  0  0  0  0  0  0  0  0
++         0  0  0  0  0  0  0  0  0  0  0  0  0  0  0  0  0
++         0  0  0  0  0  0  0  0  0  0  0  0  0  0  0  0  0
++         0  0  0  0  0  0  0  0  0  0  0  0  0  0  0  0  0
++         0  0  0  0  0  0  0  0  0  0  0  0  0  0  0  0  0
++         0  0  0  0  0  0  0  0  0  0  0  0  0  0  0  0  0
++         0  0  0  0  0  0  0  0  0  0  0  0  0  0  0  0  0
%c M  cc GPS ccc cccc cccc cccc cccc ccccc ccccc ccccc ccccc
%c cc cc ccc ccc cccc cccc cccc cccc ccccc ccccc ccccc ccccc
%f  0.0000000  0.000000000  0.00000000000  0.000000000000000
%f  0.0000000  0.000000000  0.00000000000  0.000000000000000
%i    0    0    0    0      0      0      0      0         0
%i    0    0    0    0      0      0      0      0         0
/* IAC                                ULTRA-RAPID PREDICTION
/* S/V CLOCKS ARE ALIGNED TO GNSS TIME                      
/* G:C1WC2W R:C1PC2P E:C1XC5X C:C2IC6I J:C1CC2S             
/* PCV:IGS20_2247 OL/AL:FES2004  NONE     YN ORB:CoN CLK:CoN
*  2023 06 02 22 30  0.00000000
PC06 -16415.394033  37239.602412  10447.761391   -184.052654
PC07  -2645.104474  34247.318012  24625.840197   -113.430888
PC08 -11020.157658  19522.838735 -35750.585500    470.034710
PC09  -8970.668291  35856.119895  20167.718958    580.493915
PC10   5239.871798  37540.834685  19309.419664    -75.199680
PC11  -8625.584730 -15726.897582  21430.917075    653.177732
PC12   4901.399520 -26158.180394   8410.412680    684.184306
PC13  -2357.656192  21820.236363 -35866.001221    288.175640
PC14 -18676.632449 -20525.961173  -2566.689491    351.266493
PC16 -18314.050956  37007.024611   7982.773883     57.032352
PC19  21233.356487  14010.165355  11533.194544   -917.815740
PC20  14309.961643  23440.125461  -5051.900756    528.514776
PC21   1950.278552 -19394.994907  19975.004472   -919.790305
PC22  16293.728606  -3937.347277  22317.444721   -458.973433
PC23 -26620.525764   7144.198349   4375.175400   -946.020074
PC24  -7366.123653 -15137.871102 -22265.968874     17.876961
PC25 -24813.728524  -4446.743927 -11996.304836    139.332014
PC26  12039.081726 -16163.077308 -19300.499872   -129.206314
PC27 -10344.124481  25910.823090   -251.888334    149.437446
PC28 -17649.754740  15429.809889  15138.754742    110.833474
PC29  15013.258226   5508.878310 -22879.696624    128.812313
PC30   3333.890117  22880.525288 -15621.817833     -0.809148
PC32  -1814.387042  19400.508415 -19966.818335   -553.687401
PC33 -21293.466298 -13941.173860 -11410.556750   -889.554471
PC34  -4266.908209 -22105.087662  16485.831163    184.531637
PC35  17262.344159 -15472.411504 -15579.889850    615.424221
PC36  24273.474761   5536.112850  12628.069169   -405.389357
PC37 -13614.746272  15641.361041  18700.052306   -784.413259
PC38 -19406.523897  20166.625473 -31559.233593     82.532476
PC39 -19611.880332  37128.470833   2321.967596     -3.157882
PC40  -5513.140495  31003.817249  28156.184891    -25.056549
PC41 -16658.674816   3361.017954 -22076.848309   -929.805596
PC42 -13333.865702 -23645.422714   6443.700293   -665.365099
PC43 -14736.680584  -6527.359344  22766.173496     24.370546
PC44   9534.666722 -26244.930202      4.284808    126.065136
PC45  26461.792363  -7379.227894  -4844.507478   -105.467580
PC46   8958.311333  14572.960420  22044.764304    -58.639168
PE02  27448.034517   4458.776031 -10128.602907     41.783645
PE03  17076.128442   -288.826556  24179.813168    -22.568704
PE04 -10483.885135  20783.120656 -18274.744168   -136.169311
PE05  13757.578664  20781.778938  15982.114373    -61.620731
PE07  -2224.026538 -29457.727205   1759.813728    -49.766328
PE08  10533.487452 -20496.296122  18575.191489    -92.885856
PE09   2187.654377  29466.649270  -1905.828054    -36.535605
PE10 -14835.824301  21877.581389 -13336.987102   -538.338244
PE11  -4915.846227  20473.789856 -20815.185517   2108.821119
PE12 -21602.399059  19722.173830  -4474.567809   -564.290364
PE13   5723.248270 -20668.744544  20401.392922    -19.223979
PE14 -15738.111168   5149.963149  18900.692351    243.001817
PE15  21787.154946 -19617.220204   4115.135951    -26.510659
PE18  19847.315540   5157.952145 -23630.308976    136.789721
PE19 -17089.986102  -2857.665063 -23985.555707  -2388.891284
PE21 -23705.418526 -16004.971027  -7620.040017   -532.737891
PE24   5144.072040  18923.412465  22153.965047   -133.447149
PE25  23497.266509  16155.791984   7943.073103   -606.111226
PE26 -14228.148085  -9151.619319  24284.858763    122.656812
PE27  -6023.759067 -18987.983839 -21893.805901    -65.021426
PE30  15569.597998 -10410.666374 -22927.744687   -223.840769
PE31 -15023.764858  10760.418589  23129.912050   -525.078053
PE33 -24853.586318   6991.770051  14462.584497   -443.648287
PE34  24882.952780  -7146.979623 -14358.644590    -48.745589
PE36  13497.877131   9601.518241 -24537.817927    -65.459618
PG01  -8856.472493  18884.879553 -16566.287877    180.911461
PG02 -17705.050010  18894.491208  -5064.026843   -589.685871
PG03   2031.223329  16507.369754 -20870.122689   -283.711033
PG04   -475.300942  26388.555445  -2346.822525     57.860556
PG05  15059.008223  -8609.339734  19971.352625   -129.604333
PG06  21279.007171  -1795.881684 -15797.690971    586.698699
PG07   7151.991121  14015.859211  21832.290800    162.479097
PG08  -7360.450333  21324.710866  13625.434890   -125.502712
PG09   7612.798097  24343.044449   7257.013296   -144.767620
PG10 -24230.620451 -11280.422468   -313.979260    -39.537272
PG11  23363.538023 -12340.957135  -2482.077983   -220.353524
PG12   2323.618708 -15785.528427 -21523.528546   -383.759845
PG13  12960.869350 -14799.961369  17566.438036    528.682526
PG14  22834.807047  13554.340995   2199.814779     77.814236
PG15   4518.065113 -22575.040111  12555.673850     45.275720
PG16 -18686.802643   3737.329903  18381.285947   -495.302656
PG17  12972.337232  12921.764564 -18774.773090    717.075447
PG18  -9533.248898 -11568.027064  21929.442206   -291.995630
PG19  14788.892498   4311.055513 -21889.688542    325.333158
PG20  22001.415333  -4274.310987  14137.133859    430.145388
PG21 -15393.690902  19476.750417  -7565.390823    153.415655
PG22 -14970.191788   -181.722915 -21487.204573    491.658905
PG23 -18039.253238 -16183.174824  11052.631220     29.585737
PG24  11054.554313 -20814.979555 -12180.577919   -211.227007
PG25 -10824.098276 -18041.777133 -16681.481602    447.176814
PG26 -25028.498851  -2903.790517   8811.647583    239.833168
PG27 -12972.857092  10946.996824  20065.497895     24.423855
PG28 -20468.952884    422.941721 -16939.854424     81.842340
PG29  -3586.792657 -25735.674602   5211.076342   -601.557976
PG30  16789.597102   6282.900794  19788.812455   -513.482186
PG31 -24006.093738   9631.185303  -7169.963537   -217.347648
PG32 -14710.336908  -9861.409946 -19673.906989   -491.356761
PJ02 -27675.954984  21461.807460  28550.840954     -0.282007
PJ03 -33186.478199  25789.770111   8157.191304      5.553801
PJ04 -22368.300233  22742.000761 -22441.802609     95.005591
PR01  -9963.147099   4711.486660 -22998.849178     58.670777
PR02   1628.778666  19547.193983 -16222.803725    -22.752023
PR03  11952.208964  22501.879704    -81.822089     78.955867
PR04  15167.503635  13150.865012  15764.450019    189.655880
PR05  10334.964332  -3395.666067  23086.368688    113.532609
PR07 -12231.503867 -22403.273996   -603.695397     57.201344
PR08 -15287.015748 -12945.316922 -15746.984706    -71.097351
PR09   7327.695838 -10800.600683 -21910.348523    123.655464
PR11 -23783.835660  -4298.732728  -8116.076612    -70.148555
PR12 -22612.402308   4610.265973  10908.092913     27.798373
PR13  -9398.624431  10134.645739  21426.884756    -35.698580
PR14  11778.604363  10088.663584  20273.217465     24.719106
PR15  24223.169768   4029.559726   6940.988317     88.903305
PR16  22772.985422  -4540.863634 -10586.141362     15.214379
PR17    593.398865  16004.430997 -19866.543202    635.528439
PR18  11304.218711   1424.792783 -22820.165230     84.655246
PR19  16536.315401 -12194.803605 -15121.953137   -234.886314
PR20  12360.344925 -21786.528382   4936.499941    -93.942847
PR21  -1497.447608 -14907.431916  20628.987170    -12.256523
PR22 -12062.719851  -1193.187189  22462.523709     79.524064
PR24 -11181.579437  22265.317904  -5493.845348     -9.815035
PR25    -15.347966 -16213.587776  19685.232350     60.837767
EOF
